OBJECT_NAME,OBJECT_ID,EPOCH,MEAN_MOTION,ECCENTRICITY,INCLINATION,RA_OF_ASC_NODE,ARG_OF_PERICENTER,MEAN_ANOMALY,EPHEMERIS_TYPE,CLASSIFICATION_TYPE,NORAD_CAT_ID,ELEMENT_SET_NO,REV_AT_EPOCH,BSTAR,MEAN_MOTION_DOT,MEAN_MOTION_DDOT
COSMOS 2058,1990-010A,2026-06-03T13:38:31.063776,15.11922501,.0010729,82.4664,322.7874,44.4121,315.7968,0,U,20465,999,95521,.19138451E-3,.3311E-4,0
SL-14 R/B,1990-010B,2026-06-03T14:40:58.468512,14.83637342,.00202813,82.5021,186.6939,21.1414,339.0635,0,U,20466,999,94122,.42894103E-4,.379E-5,0
SL-14 R/B,1990-018B,2026-06-03T10:36:45.079488,14.82206737,.001655,82.5200,142.9551,164.6601,195.5119,0,U,20511,999,93528,.48285258E-4,.409E-5,0
HST,1990-037B,2026-06-02T08:13:52.267584,15.30586461,.00017007,28.4711,182.0162,354.7953,5.2625,0,U,20580,999,78629,.18209235E-3,.5773E-4,0
SL-16 R/B,1990-046B,2026-06-03T07:18:48.831840,14.15018969,.00143124,70.9973,118.1037,182.9721,177.1319,0,U,20625,999,86050,.7167935E-4,.91E-6,0
COSMOS 2084,1990-055A,2026-06-02T20:28:10.339680,15.06053641,.00056692,62.7910,45.0138,252.8637,107.1843,0,U,20663,999,94914,.16876066E-3,.2275E-4,0
SL-6 R/B(2),1990-055D,2026-06-03T14:50:55.413888,15.03954783,.00384671,62.7840,321.5465,3.2813,356.8531,0,U,20666,999,95111,.15368445E-3,.1958E-4,0
SL-8 R/B,1990-078B,2026-06-03T12:20:41.404704,14.91816568,.03534766,82.9007,173.9922,84.4542,279.6877,0,U,20775,999,82208,.46462246E-3,.16486E-3,0
SL-8 R/B,1991-006B,2026-06-03T08:17:23.152704,13.77504959,.00229884,82.9414,106.3305,151.6957,320.5400,0,U,21088,999,77586,.25761498E-4,.41E-6,0
OKEAN-3,1991-039A,2026-06-03T15:27:58.280256,15.05266632,.00147244,82.5174,253.5133,43.5026,316.7359,0,U,21397,999,87796,.18089469E-3,.2618E-4,0
COSMOS 2151,1991-042A,2026-06-03T20:31:24.005280,15.00399218,.00135474,82.4964,0.5482,124.0578,236.1935,0,U,21422,999,87611,.14326808E-3,.183E-4,0
SL-14 R/B,1991-042B,2026-06-03T10:42:01.424448,14.81893084,.00160236,82.4916,139.7819,323.8590,36.1540,0,U,21423,999,86577,.51469455E-4,.431E-5,0
ERS-1,1991-050A,2026-06-03T14:39:34.893792,14.39508441,.00309103,98.7800,174.9768,308.7341,51.1084,0,U,21574,999,82809,.10317507E-3,.277E-5,0
ARIANE 40 R/B,1991-050F,2026-06-03T14:18:58.513248,14.42948583,.00036083,98.1882,203.5419,152.2556,207.8828,0,U,21610,999,83138,.1115995E-3,.332E-5,0
INTERCOSMOS 25,1991-086A,2026-06-03T07:53:19.226400,12.12177492,.14845825,82.6052,258.1959,292.3131,52.7351,0,U,21819,999,50706,.20370766E-3,.1025E-4,0
SL-8 R/B,1992-008B,2026-06-03T14:39:33.613344,13.75973616,.00332399,82.9273,203.8814,253.8718,218.1220,0,U,21876,999,72123,.30768387E-4,.45E-6,0
SL-8 R/B,1992-020B,2026-06-03T07:37:09.801120,13.75547502,.00304125,82.9301,90.1587,60.0314,56.2183,0,U,21938,999,71290,.48506018E-4,.62E-6,0
USA 81,1992-023A,2026-06-03T07:17:09.451104,14.32394120,.0002699,85.0074,82.0194,97.3286,262.8213,0,U,21949,999,10704,.69610406E-4,.208E-5,0
COSMOS 2219,1992-076A,2026-06-03T12:55:03.775296,14.14096056,.00159629,71.0584,198.6057,66.4966,293.7832,0,U,22219,999,73051,-.64869385E-4,-.171E-5,0
SL-16 R/B,1992-076B,2026-06-03T14:47:49.181280,14.16872859,.00142403,71.0012,7.3695,316.6487,106.9034,0,U,22220,999,73400,-.1125382E-5,-.5E-6,0
COSMOS 2221,1992-080A,2026-06-03T15:10:52.749408,14.96497704,.00125723,82.5039,196.7504,262.5613,97.4181,0,U,22236,999,79364,.13370357E-3,.1546E-4,0
SL-16 R/B,1992-093B,2026-06-03T12:46:55.190208,14.15464578,.00046965,71.0204,184.0562,205.6228,154.4663,0,U,22285,999,72530,.75072994E-4,.99E-6,0
COSMOS 2228,1992-094A,2026-06-03T20:35:27.457152,14.97535194,.00182458,82.5165,154.8102,17.7210,342.4644,0,U,22286,999,78895,.17468533E-3,.207E-4,0
SL-16 R/B,1993-016B,2026-06-03T15:39:39.317760,14.15308702,.00110621,71.0083,34.6355,203.4871,156.5748,0,U,22566,999,71433,-.36523033E-4,-.119E-5,0
COSMOS 2242,1993-024A,2026-06-03T13:03:18.695232,14.96861755,.00166768,82.5184,184.5951,22.3759,337.8187,0,U,22626,999,79323,.15651537E-3,.1825E-4,0
SL-16 R/B,1993-059B,2026-06-03T12:21:34.752384,14.17243353,.00148659,70.9888,190.1362,77.8104,282.4683,0,U,22803,999,69169,-.33768428E-4,-.116E-5,0
ARIANE 40 R/B,1993-061H,2026-06-03T04:04:40.088352,14.32901544,.00113308,98.4821,221.3176,37.1195,323.0771,0,U,22830,999,70634,.1049135E-3,.244E-5,0
COSMOS 2278,1994-023A,2026-06-03T14:20:15.518112,14.14389092,.00106479,71.0539,355.3603,258.3884,101.6044,0,U,23087,999,65695,.20947027E-3,.354E-5,0
SL-16 R/B,1994-023B,2026-06-03T14:31:30.121536,14.15018195,.00036145,70.9999,250.4545,202.8556,157.2406,0,U,23088,999,65824,.13615418E-4,-.21E-6,0
SL-16 R/B,1994-074B,2026-06-03T15:07:58.915200,14.79490101,.00053529,97.6996,181.9160,309.9593,162.3456,0,U,23343,999,69995,.69684364E-4,.472E-5,0
