COSMOS 2058             
1 20465U 90010A   26154.56841509  .00003311  00000+0  19138-3 0  9995
2 20465  82.4664 322.7874 0010729  44.4121 315.7968 15.11922501955215
SL-14 R/B               
1 20466U 90010B   26154.61178783  .00000379  00000+0  42894-4 0  9996
2 20466  82.5021 186.6939 0020281  21.1414 339.0635 14.83637342941224
SL-14 R/B               
1 20511U 90018B   26154.44218842  .00000409  00000+0  48285-4 0  9991
2 20511  82.5200 142.9551 0016550 164.6601 195.5119 14.82206737935284
HST                     
1 20580U 90037B   26153.34296606  .00005773  00000+0  18209-3 0  9991
2 20580  28.4711 182.0162 0001700 354.7953   5.2625 15.30586461786295
SL-16 R/B               
1 20625U 90046B   26154.30473185  .00000091  00000+0  71679-4 0  9996
2 20625  70.9973 118.1037 0014312 182.9721 177.1319 14.15018969860506
COSMOS 2084             
1 20663U 90055A   26153.85289745  .00002275  00000+0  16876-3 0  9997
2 20663  62.7910  45.0138 0005669 252.8637 107.1843 15.06053641949146
SL-6 R/B(2)             
1 20666U 90055D   26154.61869692  .00001958  00000+0  15368-3 0  9992
2 20666  62.7840 321.5465 0038467   3.2813 356.8531 15.03954783951113
SL-8 R/B                
1 20775U 90078B   26154.51436811  .00016486  00000+0  46462-3 0  9991
2 20775  82.9007 173.9922 0353476  84.4542 279.6877 14.91816568822082
SL-8 R/B                
1 21088U 91006B   26154.34540686  .00000041  00000+0  25761-4 0  9998
2 21088  82.9414 106.3305 0022988 151.6957 320.5400 13.77504959775867
OKEAN-3                 
1 21397U 91039A   26154.64442454  .00002618  00000+0  18089-3 0  9990
2 21397  82.5174 253.5133 0014724  43.5026 316.7359 15.05266632877968
COSMOS 2151             
1 21422U 91042A   26154.85513895  .00001830  00000+0  14327-3 0  9990
2 21422  82.4964   0.5482 0013547 124.0578 236.1935 15.00399218876112
SL-14 R/B               
1 21423U 91042B   26154.44584982  .00000431  00000+0  51469-4 0  9996
2 21423  82.4916 139.7819 0016023 323.8590  36.1540 14.81893084865772
ERS-1                   
1 21574U 91050A   26154.61082053  .00000277  00000+0  10318-3 0  9998
2 21574  98.7800 174.9768 0030910 308.7341  51.1084 14.39508441828099
ARIANE 40 R/B           
1 21610U 91050F   26154.59651057  .00000332  00000+0  11160-3 0  9990
2 21610  98.1882 203.5419 0003608 152.2556 207.8828 14.42948583831381
INTERCOSMOS 25          
1 21819U 91086A   26154.32869475  .00001025  00000+0  20371-3 0  9990
2 21819  82.6052 258.1959 1484582 292.3131  52.7351 12.12177492507065
SL-8 R/B                
1 21876U 92008B   26154.61080571  .00000045  00000+0  30768-4 0  9995
2 21876  82.9273 203.8814 0033239 253.8718 218.1220 13.75973616721236
SL-8 R/B                
1 21938U 92020B   26154.31747455  .00000062  00000+0  48506-4 0  9994
2 21938  82.9301  90.1587 0030412  60.0314  56.2183 13.75547502712905
USA 81                  
1 21949U 92023A   26154.30358161  .00000208  00000+0  69610-4 0  9991
2 21949  85.0074  82.0194 0002699  97.3286 262.8213 14.32394120107041
COSMOS 2219             
1 22219U 92076A   26154.53823814 -.00000171  00000+0 -64869-4 0  9999
2 22219  71.0584 198.6057 0015962  66.4966 293.7832 14.14096056730515
SL-16 R/B               
1 22220U 92076B   26154.61654145 -.00000050  00000+0 -11254-5 0  9996
2 22220  71.0012   7.3695 0014240 316.6487 106.9034 14.16872859734005
COSMOS 2221             
1 22236U 92080A   26154.63255497  .00001546  00000+0  13370-3 0  9995
2 22236  82.5039 196.7504 0012572 262.5613  97.4181 14.96497704793648
SL-16 R/B               
1 22285U 92093B   26154.53258322  .00000099  00000+0  75073-4 0  9993
2 22285  71.0204 184.0562 0004696 205.6228 154.4663 14.15464578725302
COSMOS 2228             
1 22286U 92094A   26154.85795668  .00002070  00000+0  17469-3 0  9994
2 22286  82.5165 154.8102 0018245  17.7210 342.4644 14.97535194788950
SL-16 R/B               
1 22566U 93016B   26154.65253840 -.00000119  00000+0 -36523-4 0  9996
2 22566  71.0083  34.6355 0011062 203.4871 156.5748 14.15308702714338
COSMOS 2242             
1 22626U 93024A   26154.54396638  .00001825  00000+0  15652-3 0  9995
2 22626  82.5184 184.5951 0016676  22.3759 337.8187 14.96861755793238
SL-16 R/B               
1 22803U 93059B   26154.51498556 -.00000116  00000+0 -33768-4 0  9992
2 22803  70.9888 190.1362 0014865  77.8104 282.4683 14.17243353691697
ARIANE 40 R/B           
1 22830U 93061H   26154.16990843  .00000244  00000+0  10491-3 0  9999
2 22830  98.4821 221.3176 0011330  37.1195 323.0771 14.32901544706341
COSMOS 2278             
1 23087U 94023A   26154.59740183  .00000354  00000+0  20947-3 0  9999
2 23087  71.0539 355.3603 0010647 258.3884 101.6044 14.14389092656956
SL-16 R/B               
1 23088U 94023B   26154.60520974 -.00000021  00000+0  13615-4 0  9993
2 23088  70.9999 250.4545 0003614 202.8556 157.2406 14.15018195658248
SL-16 R/B               
1 23343U 94074B   26154.63054300  .00000472  00000+0  69684-4 0  9997
2 23343  97.6996 181.9160 0005352 309.9593 162.3456 14.79490101699953
